[{"OBJECT_NAME":"STARLINK-6193","OBJECT_ID":"2023-083AE","EPOCH":"2026-03-09T22:00:01.999584","MEAN_MOTION":15.0714754,"ECCENTRICITY":0.00021191,"INCLINATION":43.0012,"RA_OF_ASC_NODE":67.6359,"ARG_OF_PERICENTER":267.5644,"MEAN_ANOMALY":84.7717,"EPHEMERIS_TYPE":0,"CLASSIFICATION_TYPE":"U","NORAD_CAT_ID":56904,"ELEMENT_SET_NO":999,"REV_AT_EPOCH":577,"BSTAR":0.0046495189,"MEAN_MOTION_DOT":0.00071596,"MEAN_MOTION_DDOT":0},{"OBJECT_NAME":"UMBRA-07","OBJECT_ID":"2023-174AT","EPOCH":"2026-03-09T17:14:20.565312","MEAN_MOTION":15.07174057,"ECCENTRICITY":0.00041314,"INCLINATION":97.3902,"RA_OF_ASC_NODE":128.3323,"ARG_OF_PERICENTER":75.5473,"MEAN_ANOMALY":284.6213,"EPHEMERIS_TYPE":0,"CLASSIFICATION_TYPE":"U","NORAD_CAT_ID":58297,"ELEMENT_SET_NO":999,"REV_AT_EPOCH":12842,"BSTAR":0.0008461425,"MEAN_MOTION_DOT":0.00012685,"MEAN_MOTION_DDOT":0}]
